{
  "type": "FeatureCollection",
  "features": [
    {
      "type": "Feature",
      "properties": {
        "norad_id": 34833,
        "name": "IRIDIUM 33 DEB",
        "group": "iridium-33-debris",
        "lat": -10.586449324132836,
        "lon": 44.82459247055398,
        "alt_km": 716.8047344622455,
        "timestamp": "2025-12-25T11:37:44.824405+00:00",
        "meta_object_name": "IRIDIUM 33 DEB",
        "meta_object_id": "1997-051MH",
        "meta_epoch": "2025-12-25T03:41:55.955040",
        "meta_mean_motion": 14.52445714,
        "meta_eccentricity": 0.0021212,
        "meta_inclination": 86.392,
        "meta_ra_of_asc_node": 45.6427,
        "meta_arg_of_pericenter": 60.5009,
        "meta_mean_anomaly": 2.6128,
        "meta_ephemeris_type": 0,
        "meta_classification_type": "U",
        "meta_norad_cat_id": 34833,
        "meta_element_set_no": 999,
        "meta_rev_at_epoch": 87895,
        "meta_bstar": 0.00071682,
        "meta_mean_motion_dot": 2.951e-05,
        "meta_mean_motion_ddot": 0,
        "tle_line1": "1 34833U 97051MH  25359.15411985  .00002951  00000+0  71682-3 0  9994",
        "tle_line2": "2 34833  86.3920  45.6427 0021212  60.5009   2.6128 14.52445714878950"
      },
      "geometry": {
        "type": "Point",
        "coordinates": [
          44.82459247055398,
          -10.586449324132836
        ]
      }
    },
    {
      "type": "Feature",
      "properties": {
        "norad_id": 34870,
        "name": "IRIDIUM 33 DEB",
        "group": "iridium-33-debris",
        "lat": -12.647548954136344,
        "lon": -52.583082058266605,
        "alt_km": 655.3030578106473,
        "timestamp": "2025-12-25T11:37:44.824415+00:00",
        "meta_object_name": "IRIDIUM 33 DEB",
        "meta_object_id": "1997-051MQ",
        "meta_epoch": "2025-12-23T08:19:45.742080",
        "meta_mean_motion": 14.76622779,
        "meta_eccentricity": 0.00178135,
        "meta_inclination": 86.3116,
        "meta_ra_of_asc_node": 309.2251,
        "meta_arg_of_pericenter": 145.0656,
        "meta_mean_anomaly": 7.2154,
        "meta_ephemeris_type": 0,
        "meta_classification_type": "U",
        "meta_norad_cat_id": 34870,
        "meta_element_set_no": 999,
        "meta_rev_at_epoch": 89067,
        "meta_bstar": 0.001482504,
        "meta_mean_motion_dot": 0.0001041,
        "meta_mean_motion_ddot": 0,
        "tle_line1": "1 34870U 97051MQ  25357.34705720  .00010410  00000+0  14825-2 0  9991",
        "tle_line2": "2 34870  86.3116 309.2251 0017813 145.0656   7.2154 14.76622779890678"
      },
      "geometry": {
        "type": "Point",
        "coordinates": [
          -52.583082058266605,
          -12.647548954136344
        ]
      }
    },
    {
      "type": "Feature",
      "properties": {
        "norad_id": 34896,
        "name": "IRIDIUM 33 DEB",
        "group": "iridium-33-debris",
        "lat": 79.8182408870998,
        "lon": -18.091834137950038,
        "alt_km": 664.8224681520815,
        "timestamp": "2025-12-25T11:37:44.824425+00:00",
        "meta_object_name": "IRIDIUM 33 DEB",
        "meta_object_id": "1997-051MY",
        "meta_epoch": "2025-12-24T04:12:44.288640",
        "meta_mean_motion": 14.66381715,
        "meta_eccentricity": 0.00257287,
        "meta_inclination": 86.3299,
        "meta_ra_of_asc_node": 321.5555,
        "meta_arg_of_pericenter": 173.6101,
        "meta_mean_anomaly": 201.3064,
        "meta_ephemeris_type": 0,
        "meta_classification_type": "U",
        "meta_norad_cat_id": 34896,
        "meta_element_set_no": 999,
        "meta_rev_at_epoch": 87787,
        "meta_bstar": 0.00093038371,
        "meta_mean_motion_dot": 5.188e-05,
        "meta_mean_motion_ddot": 0,
        "tle_line1": "1 34896U 97051MY  25358.17551260  .00005188  00000+0  93038-3 0  9999",
        "tle_line2": "2 34896  86.3299 321.5555 0025728 173.6101 201.3064 14.66381715877873"
      },
      "geometry": {
        "type": "Point",
        "coordinates": [
          -18.091834137950038,
          79.8182408870998
        ]
      }
    },
    {
      "type": "Feature",
      "properties": {
        "norad_id": 34926,
        "name": "IRIDIUM 33 DEB",
        "group": "iridium-33-debris",
        "lat": -5.055047021229844,
        "lon": 2.017715592299072,
        "alt_km": 727.6214830083982,
        "timestamp": "2025-12-25T11:37:44.824435+00:00",
        "meta_object_name": "IRIDIUM 33 DEB",
        "meta_object_id": "1997-051NF",
        "meta_epoch": "2025-12-24T11:35:50.045568",
        "meta_mean_motion": 14.54934016,
        "meta_eccentricity": 0.00742773,
        "meta_inclination": 86.1319,
        "meta_ra_of_asc_node": 2.8252,
        "meta_arg_of_pericenter": 252.0201,
        "meta_mean_anomaly": 260.7718,
        "meta_ephemeris_type": 0,
        "meta_classification_type": "U",
        "meta_norad_cat_id": 34926,
        "meta_element_set_no": 999,
        "meta_rev_at_epoch": 86627,
        "meta_bstar": 0.0058051773,
        "meta_mean_motion_dot": 0.00025989,
        "meta_mean_motion_ddot": 0,
        "tle_line1": "1 34926U 97051NF  25358.48321812  .00025989  00000+0  58052-2 0  9992",
        "tle_line2": "2 34926  86.1319   2.8252 0074277 252.0201 260.7718 14.54934016866279"
      },
      "geometry": {
        "type": "Point",
        "coordinates": [
          2.017715592299072,
          -5.055047021229844
        ]
      }
    },
    {
      "type": "Feature",
      "properties": {
        "norad_id": 34985,
        "name": "IRIDIUM 33 DEB",
        "group": "iridium-33-debris",
        "lat": -78.72949999768969,
        "lon": -109.97341808530824,
        "alt_km": 756.9024482964314,
        "timestamp": "2025-12-25T11:37:44.824445+00:00",
        "meta_object_name": "IRIDIUM 33 DEB",
        "meta_object_id": "1997-051NR",
        "meta_epoch": "2025-12-24T21:41:40.078176",
        "meta_mean_motion": 14.42058691,
        "meta_eccentricity": 0.0022059,
        "meta_inclination": 86.3682,
        "meta_ra_of_asc_node": 51.6896,
        "meta_arg_of_pericenter": 179.2427,
        "meta_mean_anomaly": 307.5347,
        "meta_ephemeris_type": 0,
        "meta_classification_type": "U",
        "meta_norad_cat_id": 34985,
        "meta_element_set_no": 999,
        "meta_rev_at_epoch": 87350,
        "meta_bstar": 0.00065683,
        "meta_mean_motion_dot": 2.182e-05,
        "meta_mean_motion_ddot": 0,
        "tle_line1": "1 34985U 97051NR  25358.90393609  .00002182  00000+0  65683-3 0  9996",
        "tle_line2": "2 34985  86.3682  51.6896 0022059 179.2427 307.5347 14.42058691873501"
      },
      "geometry": {
        "type": "Point",
        "coordinates": [
          -109.97341808530824,
          -78.72949999768969
        ]
      }
    },
    {
      "type": "Feature",
      "properties": {
        "norad_id": 35051,
        "name": "IRIDIUM 33 DEB",
        "group": "iridium-33-debris",
        "lat": 85.78410512185248,
        "lon": 64.01439564106292,
        "alt_km": 719.7628623596793,
        "timestamp": "2025-12-25T11:37:44.824455+00:00",
        "meta_object_name": "IRIDIUM 33 DEB",
        "meta_object_id": "1997-051NX",
        "meta_epoch": "2025-12-22T18:31:37.744896",
        "meta_mean_motion": 14.47639956,
        "meta_eccentricity": 0.0010302,
        "meta_inclination": 86.324,
        "meta_ra_of_asc_node": 4.4893,
        "meta_arg_of_pericenter": 63.2582,
        "meta_mean_anomaly": 296.9674,
        "meta_ephemeris_type": 0,
        "meta_classification_type": "U",
        "meta_norad_cat_id": 35051,
        "meta_element_set_no": 999,
        "meta_rev_at_epoch": 87141,
        "meta_bstar": 0.00060447572,
        "meta_mean_motion_dot": 2.248e-05,
        "meta_mean_motion_ddot": 0,
        "tle_line1": "1 35051U 97051NX  25356.77196464  .00002248  00000+0  60448-3 0  9991",
        "tle_line2": "2 35051  86.3240   4.4893 0010302  63.2582 296.9674 14.47639956871417"
      },
      "geometry": {
        "type": "Point",
        "coordinates": [
          64.01439564106292,
          85.78410512185248
        ]
      }
    },
    {
      "type": "Feature",
      "properties": {
        "norad_id": 35052,
        "name": "IRIDIUM 33 DEB",
        "group": "iridium-33-debris",
        "lat": 0.815548592208703,
        "lon": -165.04105395177493,
        "alt_km": 772.3938539269438,
        "timestamp": "2025-12-25T11:37:44.824465+00:00",
        "meta_object_name": "IRIDIUM 33 DEB",
        "meta_object_id": "1997-051NY",
        "meta_epoch": "2025-12-25T00:47:01.040352",
        "meta_mean_motion": 14.38506119,
        "meta_eccentricity": 0.0013078,
        "meta_inclination": 86.3301,
        "meta_ra_of_asc_node": 15.205,
        "meta_arg_of_pericenter": 50.4625,
        "meta_mean_anomaly": 309.7726,
        "meta_ephemeris_type": 0,
        "meta_classification_type": "U",
        "meta_norad_cat_id": 35052,
        "meta_element_set_no": 999,
        "meta_rev_at_epoch": 87452,
        "meta_bstar": 0.00019004,
        "meta_mean_motion_dot": 6.01e-06,
        "meta_mean_motion_ddot": 0,
        "tle_line1": "1 35052U 97051NY  25359.03265093  .00000601  00000+0  19004-3 0  9992",
        "tle_line2": "2 35052  86.3301  15.2050 0013078  50.4625 309.7726 14.38506119874520"
      },
      "geometry": {
        "type": "Point",
        "coordinates": [
          -165.04105395177493,
          0.815548592208703
        ]
      }
    }
  ]
}